{"type": "FeatureCollection", "features": [ {"type": "Feature", "properties": {"norad_id": 44476, "name": "INTELSAT 39 (IS-39)", "group": "intelsat", "lat": -0.013155398491464883, "lon": -120.2681434865562, "alt_km": 35787.0762922965, "timestamp": "2025-12-26T05:31:12.167861+00:00", "meta": {"OBJECT_NAME": "INTELSAT 39 (IS-39)", "OBJECT_ID": "2019-049B", "EPOCH": "2025-12-25T22:58:31.327392", "MEAN_MOTION": 1.00267496, "ECCENTRICITY": 0.00012671, "INCLINATION": 0.0015, "RA_OF_ASC_NODE": 28.3324, "ARG_OF_PERICENTER": 123.6864, "MEAN_ANOMALY": 349.2708, "EPHEMERIS_TYPE": 0, "CLASSIFICATION_TYPE": "U", "NORAD_CAT_ID": 44476, "ELEMENT_SET_NO": 999, "REV_AT_EPOCH": 2339, "BSTAR": 0, "MEAN_MOTION_DOT": 5.6e-07, "MEAN_MOTION_DDOT": 0}, "tle": {"line1": "1 44476U 19049B   25359.95730703  .00000056  00000+0  00000+0 0  9995", "line2": "2 44476   0.0015  28.3324 0001267 123.6864 349.2708  1.00267496 23396"}}, "geometry": {"type": "Point", "coordinates": [-120.2681434865562, -0.013155398491464883]}}, {"type": "Feature", "properties": {"norad_id": 46114, "name": "GALAXY 30 (G-30)", "group": "intelsat", "lat": 0.03048061636101186, "lon": 52.783838837701005, "alt_km": 35793.21180028463, "timestamp": "2025-12-26T05:31:12.167873+00:00", "meta": {"OBJECT_NAME": "GALAXY 30 (G-30)", "OBJECT_ID": "2020-056C", "EPOCH": "2025-12-25T10:50:38.606208", "MEAN_MOTION": 1.00271181, "ECCENTRICITY": 0.0002181, "INCLINATION": 0.0184, "RA_OF_ASC_NODE": 339.6266, "ARG_OF_PERICENTER": 293.6625, "MEAN_ANOMALY": 218.5799, "EPHEMERIS_TYPE": 0, "CLASSIFICATION_TYPE": "U", "NORAD_CAT_ID": 46114, "ELEMENT_SET_NO": 999, "REV_AT_EPOCH": 1955, "BSTAR": 0, "MEAN_MOTION_DOT": 5.8e-07, "MEAN_MOTION_DDOT": 0}, "tle": {"line1": "1 46114U 20056C   25359.45183572  .00000058  00000+0  00000+0 0  9999", "line2": "2 46114   0.0184 339.6266 0002181 293.6625 218.5799  1.00271181 19553"}}, "geometry": {"type": "Point", "coordinates": [52.783838837701005, 0.03048061636101186]}}, {"type": "Feature", "properties": {"norad_id": 54026, "name": "GALAXY 33 (G-33)", "group": "intelsat", "lat": 0.01805000627884619, "lon": 44.79641953190945, "alt_km": 35791.06322209029, "timestamp": "2025-12-26T05:31:12.167885+00:00", "meta": {"OBJECT_NAME": "GALAXY 33 (G-33)", "OBJECT_ID": "2022-128A", "EPOCH": "2025-12-24T04:31:51.326400", "MEAN_MOTION": 1.00272122, "ECCENTRICITY": 0.0001643, "INCLINATION": 0.0126, "RA_OF_ASC_NODE": 315.9231, "ARG_OF_PERICENTER": 309.5058, "MEAN_ANOMALY": 122.5078, "EPHEMERIS_TYPE": 0, "CLASSIFICATION_TYPE": "U", "NORAD_CAT_ID": 54026, "ELEMENT_SET_NO": 999, "REV_AT_EPOCH": 1198, "BSTAR": 0, "MEAN_MOTION_DOT": 1e-06, "MEAN_MOTION_DDOT": 0}, "tle": {"line1": "1 54026U 22128A   25358.18878850  .00000100  00000+0  00000+0 0  9999", "line2": "2 54026   0.0126 315.9231 0001643 309.5058 122.5078  1.00272122 11987"}}, "geometry": {"type": "Point", "coordinates": [44.79641953190945, 0.01805000627884619]}}, {"type": "Feature", "properties": {"norad_id": 54027, "name": "GALAXY 34 (G-34)", "group": "intelsat", "lat": 0.02807654630130272, "lon": 48.82334956248243, "alt_km": 35792.22191043507, "timestamp": "2025-12-26T05:31:12.167896+00:00", "meta": {"OBJECT_NAME": "GALAXY 34 (G-34)", "OBJECT_ID": "2022-128B", "EPOCH": "2025-12-25T10:50:38.606208", "MEAN_MOTION": 1.00270054, "ECCENTRICITY": 0.0001738, "INCLINATION": 0.0222, "RA_OF_ASC_NODE": 4.8394, "ARG_OF_PERICENTER": 262.8726, "MEAN_ANOMALY": 220.2033, "EPHEMERIS_TYPE": 0, "CLASSIFICATION_TYPE": "U", "NORAD_CAT_ID": 54027, "ELEMENT_SET_NO": 999, "REV_AT_EPOCH": 1217, "BSTAR": 0, "MEAN_MOTION_DOT": 0, "MEAN_MOTION_DDOT": 0}, "tle": {"line1": "1 54027U 22128B   25359.45183572  .00000000  00000+0  00000+0 0  9990", "line2": "2 54027   0.0222   4.8394 0001738 262.8726 220.2033  1.00270054 12178"}}, "geometry": {"type": "Point", "coordinates": [48.82334956248243, 0.02807654630130272]}}, {"type": "Feature", "properties": {"norad_id": 54243, "name": "GALAXY 31 (G-31)", "group": "intelsat", "lat": 0.02096425318669368, "lon": 56.781529882088904, "alt_km": 35790.82292634737, "timestamp": "2025-12-26T05:31:12.167908+00:00", "meta": {"OBJECT_NAME": "GALAXY 31 (G-31)", "OBJECT_ID": "2022-153A", "EPOCH": "2025-12-25T06:10:38.819136", "MEAN_MOTION": 1.00271189, "ECCENTRICITY": 0.0001633, "INCLINATION": 0.0095, "RA_OF_ASC_NODE": 327.1033, "ARG_OF_PERICENTER": 317.678, "MEAN_ANOMALY": 140.8972, "EPHEMERIS_TYPE": 0, "CLASSIFICATION_TYPE": "U", "NORAD_CAT_ID": 54243, "ELEMENT_SET_NO": 999, "REV_AT_EPOCH": 538, "BSTAR": 0, "MEAN_MOTION_DOT": 3.4e-07, "MEAN_MOTION_DDOT": 0}, "tle": {"line1": "1 54243U 22153A   25359.25739374  .00000034  00000+0  00000+0 0  9990", "line2": "2 54243   0.0095 327.1033 0001633 317.6780 140.8972  1.00271189  5384"}}, "geometry": {"type": "Point", "coordinates": [56.781529882088904, 0.02096425318669368]}}, {"type": "Feature", "properties": {"norad_id": 54244, "name": "GALAXY 32 (G-32)", "group": "intelsat", "lat": 0.027805085584001056, "lon": 86.79448239897866, "alt_km": 35791.43491835276, "timestamp": "2025-12-26T05:31:12.167919+00:00", "meta": {"OBJECT_NAME": "GALAXY 32 (G-32)", "OBJECT_ID": "2022-153B", "EPOCH": "2025-12-24T22:56:22.028928", "MEAN_MOTION": 1.00272509, "ECCENTRICITY": 0.0001992, "INCLINATION": 0.0091, "RA_OF_ASC_NODE": 20.8495, "ARG_OF_PERICENTER": 295.2988, "MEAN_ANOMALY": 30.6679, "EPHEMERIS_TYPE": 0, "CLASSIFICATION_TYPE": "U", "NORAD_CAT_ID": 54244, "ELEMENT_SET_NO": 999, "REV_AT_EPOCH": 1139, "BSTAR": 0, "MEAN_MOTION_DOT": -1.53e-06, "MEAN_MOTION_DDOT": 0}, "tle": {"line1": "1 54244U 22153B   25358.95581052 -.00000153  00000+0  00000+0 0  9998", "line2": "2 54244   0.0091  20.8495 0001992 295.2988  30.6679  1.00272509 11394"}}, "geometry": {"type": "Point", "coordinates": [86.79448239897866, 0.027805085584001056]}}, {"type": "Feature", "properties": {"norad_id": 54741, "name": "GALAXY 35 (G-35)", "group": "intelsat", "lat": 0.012552050241532916, "lon": 84.682980219834, "alt_km": 35796.1297719898, "timestamp": "2025-12-26T05:31:12.167931+00:00", "meta": {"OBJECT_NAME": "GALAXY 35 (G-35)", "OBJECT_ID": "2022-170A", "EPOCH": "2025-12-25T21:10:55.542720", "MEAN_MOTION": 1.00270925, "ECCENTRICITY": 0.00023613, "INCLINATION": 0.0228, "RA_OF_ASC_NODE": 256.929, "ARG_OF_PERICENTER": 19.3758, "MEAN_ANOMALY": 42.9691, "EPHEMERIS_TYPE": 0, "CLASSIFICATION_TYPE": "U", "NORAD_CAT_ID": 54741, "ELEMENT_SET_NO": 999, "REV_AT_EPOCH": 1115, "BSTAR": 0, "MEAN_MOTION_DOT": -1.41e-06, "MEAN_MOTION_DDOT": 0}, "tle": {"line1": "1 54741U 22170A   25359.88258730 -.00000141  00000+0  00000+0 0  9993", "line2": "2 54741   0.0228 256.9290 0002361  19.3758  42.9691  1.00270925 11158"}}, "geometry": {"type": "Point", "coordinates": [84.682980219834, 0.012552050241532916]}}, {"type": "Feature", "properties": {"norad_id": 54742, "name": "GALAXY 36 (G-36)", "group": "intelsat", "lat": 0.013907093077934368, "lon": 88.7851824004997, "alt_km": 35786.41216522016, "timestamp": "2025-12-26T05:31:12.167943+00:00", "meta": {"OBJECT_NAME": "GALAXY 36 (G-36)", "OBJECT_ID": "2022-170B", "EPOCH": "2025-12-25T00:45:14.126400", "MEAN_MOTION": 1.00272273, "ECCENTRICITY": 3.465e-05, "INCLINATION": 0.0122, "RA_OF_ASC_NODE": 82.1613, "ARG_OF_PERICENTER": 260.7471, "MEAN_ANOMALY": 33.2048, "EPHEMERIS_TYPE": 0, "CLASSIFICATION_TYPE": "U", "NORAD_CAT_ID": 54742, "ELEMENT_SET_NO": 999, "REV_AT_EPOCH": 1102, "BSTAR": 0, "MEAN_MOTION_DOT": -1.64e-06, "MEAN_MOTION_DDOT": 0}, "tle": {"line1": "1 54742U 22170B   25359.03141350 -.00000164  00000+0  00000+0 0  9995", "line2": "2 54742   0.0122  82.1613 0000346 260.7471  33.2048  1.00272273 11028"}}, "geometry": {"type": "Point", "coordinates": [88.7851824004997, 0.013907093077934368]}}, {"type": "Feature", "properties": {"norad_id": 57493, "name": "GALAXY 37 (G-37)", "group": "intelsat", "lat": 0.016320802714158374, "lon": 50.78221424288398, "alt_km": 35792.1507115944, "timestamp": "2025-12-26T05:31:12.167954+00:00", "meta": {"OBJECT_NAME": "GALAXY 37 (G-37)", "OBJECT_ID": "2023-112A", "EPOCH": "2025-12-25T14:10:28.303968", "MEAN_MOTION": 1.00271761, "ECCENTRICITY": 0.0002126, "INCLINATION": 0.0125, "RA_OF_ASC_NODE": 25.9984, "ARG_OF_PERICENTER": 252.027, "MEAN_ANOMALY": 261.9326, "EPHEMERIS_TYPE": 0, "CLASSIFICATION_TYPE": "U", "NORAD_CAT_ID": 57493, "ELEMENT_SET_NO": 999, "REV_AT_EPOCH": 880, "BSTAR": 0, "MEAN_MOTION_DOT": 6.9e-07, "MEAN_MOTION_DDOT": 0}, "tle": {"line1": "1 57493U 23112A   25359.59060537  .00000069  00000+0  00000+0 0  9999", "line2": "2 57493   0.0125  25.9984 0002126 252.0270 261.9326  1.00271761  8804"}}, "geometry": {"type": "Point", "coordinates": [50.78221424288398, 0.016320802714158374]}}]}